[{"OBJECT_NAME":"STARLINK-31025","OBJECT_ID":"2023-203S","EPOCH":"2026-03-09T00:38:34.789056","MEAN_MOTION":15.27576528,"ECCENTRICITY":5.93e-5,"INCLINATION":42.9998,"RA_OF_ASC_NODE":70.4447,"ARG_OF_PERICENTER":277.971,"MEAN_ANOMALY":82.1075,"EPHEMERIS_TYPE":0,"CLASSIFICATION_TYPE":"U","NORAD_CAT_ID":58634,"ELEMENT_SET_NO":999,"REV_AT_EPOCH":12469,"BSTAR":-3.3876096e-5,"MEAN_MOTION_DOT":-1.194e-5,"MEAN_MOTION_DDOT":0},{"OBJECT_NAME":"OBJECT N","OBJECT_ID":"2019-093N","EPOCH":"2026-03-09T21:41:56.087232","MEAN_MOTION":15.29897693,"ECCENTRICITY":0.0006278,"INCLINATION":98.0505,"RA_OF_ASC_NODE":226.9456,"ARG_OF_PERICENTER":33.3806,"MEAN_ANOMALY":326.7828,"EPHEMERIS_TYPE":0,"CLASSIFICATION_TYPE":"U","NORAD_CAT_ID":44891,"ELEMENT_SET_NO":999,"REV_AT_EPOCH":33957,"BSTAR":0.0010567776,"MEAN_MOTION_DOT":0.00030617,"MEAN_MOTION_DDOT":0}]
